STARLINK-36483          
1 67330U 26002AB  26020.25002315  .00022224  00000+0  14744-3 0  9991
2 67330  42.9988 243.5785 0001970 259.6290 195.5887 15.75032766  3788
STARLINK-36494          
1 67331U 26002AC  26020.25002315  .00037864  00000+0  24863-3 0  9991
2 67331  42.9989 243.5931 0001695 286.3620 163.1066 15.75026525  3787
STARLINK-36492          
1 67332U 26002AD  26020.25002315  .00027002  00000+0  17837-3 0  9998
2 67332  42.9989 243.5836 0002185 262.1409 191.1584 15.75032253  3785
STARLINK-36427          
1 67333U 26002AE  26020.25002315 -.01892499  00000+0 -12655-1 0  9993
2 67333  42.9954 242.9449 0001801 272.7812  72.7372 15.77539307  3693
STARLINK-35343          
1 67334U 26003A   26020.25002315 -.01401133  00000+0 -66116-2 0  9998
2 67334  42.9980 147.0294 0001556 267.0257  54.1812 15.85027496  2820
STARLINK-36486          
1 67335U 26003B   26020.25002315 -.01386628  00000+0 -65289-2 0  9990
2 67335  42.9981 147.0249 0001637 268.1342  54.9187 15.85038947  2881
STARLINK-36480          
1 67336U 26003C   26020.25002315 -.01392121  00000+0 -65603-2 0  9996
2 67336  42.9982 147.0191 0001625 266.8073  58.5842 15.85034041  2881
STARLINK-36410          
1 67337U 26003D   26020.25002315 -.01408111  00000+0 -66476-2 0  9993
2 67337  42.9983 147.0129 0001530 267.6014  60.1312 15.85033987  2882
STARLINK-36413          
1 67338U 26003E   26020.25002315 -.01454600  00000+0 -67401-2 0  9997
2 67338  42.9983 147.0077 0001604 268.0437  61.8779 15.85044148  2887
STARLINK-36451          
1 67339U 26003F   26020.25002315 -.01458938  00000+0 -67629-2 0  9998
2 67339  42.9982 147.0015 0001704 265.0131  67.1648 15.85042608  2881
STARLINK-36339          
1 67340U 26003G   26020.25002315 -.01479194  00000+0 -68739-2 0  9990
2 67340  42.9981 146.9953 0001573 266.5796  68.2263 15.85029392  2888
STARLINK-36453          
1 67341U 26003H   26020.25002315 -.01491308  00000+0 -69433-2 0  9994
2 67341  42.9983 146.9884 0001523 271.3606  65.9965 15.85013317  2886
