CCSDS_OMM_VERS = 2.0
CREATION_DATE  = 
ORIGINATOR     = 

OBJECT_NAME    = STARLINK-36483
OBJECT_ID      = 2026-002AB
CENTER_NAME    = EARTH
REF_FRAME      = TEME
TIME_SYSTEM    = UTC
MEAN_ELEMENT_THEORY = SGP/SGP4

EPOCH          = 2026-01-20T06:00:02.000160
MEAN_MOTION    = 15.75032766
ECCENTRICITY   = .000197
INCLINATION    = 42.9988
RA_OF_ASC_NODE = 243.5785
ARG_OF_PERICENTER = 259.6290
MEAN_ANOMALY   = 195.5887

EPHEMERIS_TYPE = 0
CLASSIFICATION_TYPE = U
NORAD_CAT_ID   = 67330
ELEMENT_SET_NO = 999
REV_AT_EPOCH   = 378
BSTAR          = .1474389E-3
MEAN_MOTION_DOT = .22224E-3
MEAN_MOTION_DDOT = 0

CCSDS_OMM_VERS = 2.0
CREATION_DATE  = 
ORIGINATOR     = 

OBJECT_NAME    = STARLINK-36494
OBJECT_ID      = 2026-002AC
CENTER_NAME    = EARTH
REF_FRAME      = TEME
TIME_SYSTEM    = UTC
MEAN_ELEMENT_THEORY = SGP/SGP4

EPOCH          = 2026-01-20T06:00:02.000160
MEAN_MOTION    = 15.75026525
ECCENTRICITY   = .00016953
INCLINATION    = 42.9989
RA_OF_ASC_NODE = 243.5931
ARG_OF_PERICENTER = 286.3620
MEAN_ANOMALY   = 163.1066

EPHEMERIS_TYPE = 0
CLASSIFICATION_TYPE = U
NORAD_CAT_ID   = 67331
ELEMENT_SET_NO = 999
REV_AT_EPOCH   = 378
BSTAR          = .24862592E-3
MEAN_MOTION_DOT = .37864E-3
MEAN_MOTION_DDOT = 0

CCSDS_OMM_VERS = 2.0
CREATION_DATE  = 
ORIGINATOR     = 

OBJECT_NAME    = STARLINK-36492
OBJECT_ID      = 2026-002AD
CENTER_NAME    = EARTH
REF_FRAME      = TEME
TIME_SYSTEM    = UTC
MEAN_ELEMENT_THEORY = SGP/SGP4

EPOCH          = 2026-01-20T06:00:02.000160
MEAN_MOTION    = 15.75032253
ECCENTRICITY   = .00021857
INCLINATION    = 42.9989
RA_OF_ASC_NODE = 243.5836
ARG_OF_PERICENTER = 262.1409
MEAN_ANOMALY   = 191.1584

EPHEMERIS_TYPE = 0
CLASSIFICATION_TYPE = U
NORAD_CAT_ID   = 67332
ELEMENT_SET_NO = 999
REV_AT_EPOCH   = 378
BSTAR          = .17836797E-3
MEAN_MOTION_DOT = .27002E-3
MEAN_MOTION_DDOT = 0

CCSDS_OMM_VERS = 2.0
CREATION_DATE  = 
ORIGINATOR     = 

OBJECT_NAME    = STARLINK-36427
OBJECT_ID      = 2026-002AE
CENTER_NAME    = EARTH
REF_FRAME      = TEME
TIME_SYSTEM    = UTC
MEAN_ELEMENT_THEORY = SGP/SGP4

EPOCH          = 2026-01-20T06:00:02.000160
MEAN_MOTION    = 15.77539307
ECCENTRICITY   = .00018012
INCLINATION    = 42.9954
RA_OF_ASC_NODE = 242.9449
ARG_OF_PERICENTER = 272.7812
MEAN_ANOMALY   = 72.7372

EPHEMERIS_TYPE = 0
CLASSIFICATION_TYPE = U
NORAD_CAT_ID   = 67333
ELEMENT_SET_NO = 999
REV_AT_EPOCH   = 369
BSTAR          = -.1265528E-1
MEAN_MOTION_DOT = -.1892499E-1
MEAN_MOTION_DDOT = 0

CCSDS_OMM_VERS = 2.0
CREATION_DATE  = 
ORIGINATOR     = 

OBJECT_NAME    = STARLINK-35343
OBJECT_ID      = 2026-003A
CENTER_NAME    = EARTH
REF_FRAME      = TEME
TIME_SYSTEM    = UTC
MEAN_ELEMENT_THEORY = SGP/SGP4

EPOCH          = 2026-01-20T06:00:02.000160
MEAN_MOTION    = 15.85027496
ECCENTRICITY   = .00015562
INCLINATION    = 42.9980
RA_OF_ASC_NODE = 147.0294
ARG_OF_PERICENTER = 267.0257
MEAN_ANOMALY   = 54.1812

EPHEMERIS_TYPE = 0
CLASSIFICATION_TYPE = U
NORAD_CAT_ID   = 67334
ELEMENT_SET_NO = 999
REV_AT_EPOCH   = 282
BSTAR          = -.66116224E-2
MEAN_MOTION_DOT = -.1401133E-1
MEAN_MOTION_DDOT = 0

CCSDS_OMM_VERS = 2.0
CREATION_DATE  = 
ORIGINATOR     = 

OBJECT_NAME    = STARLINK-36486
OBJECT_ID      = 2026-003B
CENTER_NAME    = EARTH
REF_FRAME      = TEME
TIME_SYSTEM    = UTC
MEAN_ELEMENT_THEORY = SGP/SGP4

EPOCH          = 2026-01-20T06:00:02.000160
MEAN_MOTION    = 15.85038947
ECCENTRICITY   = .00016376
INCLINATION    = 42.9981
RA_OF_ASC_NODE = 147.0249
ARG_OF_PERICENTER = 268.1342
MEAN_ANOMALY   = 54.9187

EPHEMERIS_TYPE = 0
CLASSIFICATION_TYPE = U
NORAD_CAT_ID   = 67335
ELEMENT_SET_NO = 999
REV_AT_EPOCH   = 288
BSTAR          = -.65289465E-2
MEAN_MOTION_DOT = -.1386628E-1
MEAN_MOTION_DDOT = 0

CCSDS_OMM_VERS = 2.0
CREATION_DATE  = 
ORIGINATOR     = 

OBJECT_NAME    = STARLINK-36480
OBJECT_ID      = 2026-003C
CENTER_NAME    = EARTH
REF_FRAME      = TEME
TIME_SYSTEM    = UTC
MEAN_ELEMENT_THEORY = SGP/SGP4

EPOCH          = 2026-01-20T06:00:02.000160
MEAN_MOTION    = 15.85034041
ECCENTRICITY   = .00016256
INCLINATION    = 42.9982
RA_OF_ASC_NODE = 147.0191
ARG_OF_PERICENTER = 266.8073
MEAN_ANOMALY   = 58.5842

EPHEMERIS_TYPE = 0
CLASSIFICATION_TYPE = U
NORAD_CAT_ID   = 67336
ELEMENT_SET_NO = 999
REV_AT_EPOCH   = 288
BSTAR          = -.65603178E-2
MEAN_MOTION_DOT = -.1392121E-1
MEAN_MOTION_DDOT = 0

CCSDS_OMM_VERS = 2.0
CREATION_DATE  = 
ORIGINATOR     = 

OBJECT_NAME    = STARLINK-36410
OBJECT_ID      = 2026-003D
CENTER_NAME    = EARTH
REF_FRAME      = TEME
TIME_SYSTEM    = UTC
MEAN_ELEMENT_THEORY = SGP/SGP4

EPOCH          = 2026-01-20T06:00:02.000160
MEAN_MOTION    = 15.85033987
ECCENTRICITY   = .00015301
INCLINATION    = 42.9983
RA_OF_ASC_NODE = 147.0129
ARG_OF_PERICENTER = 267.6014
MEAN_ANOMALY   = 60.1312

EPHEMERIS_TYPE = 0
CLASSIFICATION_TYPE = U
NORAD_CAT_ID   = 67337
ELEMENT_SET_NO = 999
REV_AT_EPOCH   = 288
BSTAR          = -.66475743E-2
MEAN_MOTION_DOT = -.1408111E-1
MEAN_MOTION_DDOT = 0

CCSDS_OMM_VERS = 2.0
CREATION_DATE  = 
ORIGINATOR     = 

OBJECT_NAME    = STARLINK-36413
OBJECT_ID      = 2026-003E
CENTER_NAME    = EARTH
REF_FRAME      = TEME
TIME_SYSTEM    = UTC
MEAN_ELEMENT_THEORY = SGP/SGP4

EPOCH          = 2026-01-20T06:00:02.000160
MEAN_MOTION    = 15.85044148
ECCENTRICITY   = .00016049
INCLINATION    = 42.9983
RA_OF_ASC_NODE = 147.0077
ARG_OF_PERICENTER = 268.0437
MEAN_ANOMALY   = 61.8779

EPHEMERIS_TYPE = 0
CLASSIFICATION_TYPE = U
NORAD_CAT_ID   = 67338
ELEMENT_SET_NO = 999
REV_AT_EPOCH   = 288
BSTAR          = -.6740065E-2
MEAN_MOTION_DOT = -.14546E-1
MEAN_MOTION_DDOT = 0

CCSDS_OMM_VERS = 2.0
CREATION_DATE  = 
ORIGINATOR     = 

OBJECT_NAME    = STARLINK-36451
OBJECT_ID      = 2026-003F
CENTER_NAME    = EARTH
REF_FRAME      = TEME
TIME_SYSTEM    = UTC
MEAN_ELEMENT_THEORY = SGP/SGP4

EPOCH          = 2026-01-20T06:00:02.000160
MEAN_MOTION    = 15.85042608
ECCENTRICITY   = .00017049
INCLINATION    = 42.9982
RA_OF_ASC_NODE = 147.0015
ARG_OF_PERICENTER = 265.0131
MEAN_ANOMALY   = 67.1648

EPHEMERIS_TYPE = 0
CLASSIFICATION_TYPE = U
NORAD_CAT_ID   = 67339
ELEMENT_SET_NO = 999
REV_AT_EPOCH   = 288
BSTAR          = -.67628603E-2
MEAN_MOTION_DOT = -.1458938E-1
MEAN_MOTION_DDOT = 0

CCSDS_OMM_VERS = 2.0
CREATION_DATE  = 
ORIGINATOR     = 

OBJECT_NAME    = STARLINK-36339
OBJECT_ID      = 2026-003G
CENTER_NAME    = EARTH
REF_FRAME      = TEME
TIME_SYSTEM    = UTC
MEAN_ELEMENT_THEORY = SGP/SGP4

EPOCH          = 2026-01-20T06:00:02.000160
MEAN_MOTION    = 15.85029392
ECCENTRICITY   = .00015736
INCLINATION    = 42.9981
RA_OF_ASC_NODE = 146.9953
ARG_OF_PERICENTER = 266.5796
MEAN_ANOMALY   = 68.2263

EPHEMERIS_TYPE = 0
CLASSIFICATION_TYPE = U
NORAD_CAT_ID   = 67340
ELEMENT_SET_NO = 999
REV_AT_EPOCH   = 288
BSTAR          = -.68739152E-2
MEAN_MOTION_DOT = -.1479194E-1
MEAN_MOTION_DDOT = 0

CCSDS_OMM_VERS = 2.0
CREATION_DATE  = 
ORIGINATOR     = 

OBJECT_NAME    = STARLINK-36453
OBJECT_ID      = 2026-003H
CENTER_NAME    = EARTH
REF_FRAME      = TEME
TIME_SYSTEM    = UTC
MEAN_ELEMENT_THEORY = SGP/SGP4

EPOCH          = 2026-01-20T06:00:02.000160
MEAN_MOTION    = 15.85013317
ECCENTRICITY   = .0001523
INCLINATION    = 42.9983
RA_OF_ASC_NODE = 146.9884
ARG_OF_PERICENTER = 271.3606
MEAN_ANOMALY   = 65.9965

EPHEMERIS_TYPE = 0
CLASSIFICATION_TYPE = U
NORAD_CAT_ID   = 67341
ELEMENT_SET_NO = 999
REV_AT_EPOCH   = 288
BSTAR          = -.69432663E-2
MEAN_MOTION_DOT = -.1491308E-1
MEAN_MOTION_DDOT = 0

